[{"OBJECT_NAME":"GSAT0101 (GALILEO-PFM)","OBJECT_ID":"2011-060A","EPOCH":"2026-04-26T05:29:44.951136","MEAN_MOTION":1.70475694,"ECCENTRICITY":0.0003765,"INCLINATION":57.0096,"RA_OF_ASC_NODE":343.1709,"ARG_OF_PERICENTER":27.25,"MEAN_ANOMALY":332.8105,"EPHEMERIS_TYPE":0,"CLASSIFICATION_TYPE":"U","NORAD_CAT_ID":37846,"ELEMENT_SET_NO":999,"REV_AT_EPOCH":9023,"BSTAR":0,"MEAN_MOTION_DOT":-9.1e-7,"MEAN_MOTION_DDOT":0},{"OBJECT_NAME":"GSAT0102 (GALILEO-FM2)","OBJECT_ID":"2011-060B","EPOCH":"2026-04-26T10:51:47.390112","MEAN_MOTION":1.70475958,"ECCENTRICITY":0.00047089,"INCLINATION":57.0107,"RA_OF_ASC_NODE":343.1653,"ARG_OF_PERICENTER":9.1421,"MEAN_ANOMALY":173.7389,"EPHEMERIS_TYPE":0,"CLASSIFICATION_TYPE":"U","NORAD_CAT_ID":37847,"ELEMENT_SET_NO":999,"REV_AT_EPOCH":9024,"BSTAR":0,"MEAN_MOTION_DOT":-9.1e-7,"MEAN_MOTION_DDOT":0},{"OBJECT_NAME":"GSAT0103 (GALILEO-FM3)","OBJECT_ID":"2012-055A","EPOCH":"2026-04-26T20:32:37.148064","MEAN_MOTION":1.70473386,"ECCENTRICITY":0.00059116,"INCLINATION":55.7754,"RA_OF_ASC_NODE":102.9524,"ARG_OF_PERICENTER":295.7911,"MEAN_ANOMALY":64.1419,"EPHEMERIS_TYPE":0,"CLASSIFICATION_TYPE":"U","NORAD_CAT_ID":38857,"ELEMENT_SET_NO":999,"REV_AT_EPOCH":8413,"BSTAR":0,"MEAN_MOTION_DOT":4.4e-7,"MEAN_MOTION_DDOT":0},{"OBJECT_NAME":"GSAT0201 (GALILEO 5)","OBJECT_ID":"2014-050A","EPOCH":"2026-04-26T03:14:49.472448","MEAN_MOTION":1.85519973,"ECCENTRICITY":0.16663331,"INCLINATION":48.9332,"RA_OF_ASC_NODE":275.567,"ARG_OF_PERICENTER":177.3572,"MEAN_ANOMALY":183.6448,"EPHEMERIS_TYPE":0,"CLASSIFICATION_TYPE":"U","NORAD_CAT_ID":40128,"ELEMENT_SET_NO":999,"REV_AT_EPOCH":7735,"BSTAR":0,"MEAN_MOTION_DOT":-6.4e-7,"MEAN_MOTION_DDOT":0},{"OBJECT_NAME":"GSAT0202 (GALILEO 6)","OBJECT_ID":"2014-050B","EPOCH":"2026-04-26T22:19:11.663040","MEAN_MOTION":1.85520667,"ECCENTRICITY":0.166755,"INCLINATION":48.9494,"RA_OF_ASC_NODE":274.6194,"ARG_OF_PERICENTER":178.1198,"MEAN_ANOMALY":182.5912,"EPHEMERIS_TYPE":0,"CLASSIFICATION_TYPE":"U","NORAD_CAT_ID":40129,"ELEMENT_SET_NO":999,"REV_AT_EPOCH":7953,"BSTAR":0,"MEAN_MOTION_DOT":-7.3e-7,"MEAN_MOTION_DDOT":0},{"OBJECT_NAME":"GSAT0203 (GALILEO 7)","OBJECT_ID":"2015-017A","EPOCH":"2026-04-27T04:19:21.542016","MEAN_MOTION":1.7047594,"ECCENTRICITY":0.0003398,"INCLINATION":56.8028,"RA_OF_ASC_NODE":342.9865,"ARG_OF_PERICENTER":299.9003,"MEAN_ANOMALY":60.1078,"EPHEMERIS_TYPE":0,"CLASSIFICATION_TYPE":"U","NORAD_CAT_ID":40544,"ELEMENT_SET_NO":999,"REV_AT_EPOCH":6833,"BSTAR":0,"MEAN_MOTION_DOT":-9.1e-7,"MEAN_MOTION_DDOT":0},{"OBJECT_NAME":"GSAT0204 (GALILEO 8)","OBJECT_ID":"2015-017B","EPOCH":"2026-04-25T02:08:52.340352","MEAN_MOTION":1.7047548,"ECCENTRICITY":0.00015528,"INCLINATION":56.8095,"RA_OF_ASC_NODE":343.0621,"ARG_OF_PERICENTER":296.0698,"MEAN_ANOMALY":63.9535,"EPHEMERIS_TYPE":0,"CLASSIFICATION_TYPE":"U","NORAD_CAT_ID":40545,"ELEMENT_SET_NO":999,"REV_AT_EPOCH":3134,"BSTAR":0,"MEAN_MOTION_DOT":-9.0e-7,"MEAN_MOTION_DDOT":0},{"OBJECT_NAME":"GSAT0205 (GALILEO 9)","OBJECT_ID":"2015-045A","EPOCH":"2026-04-25T15:10:52.485888","MEAN_MOTION":1.67410754,"ECCENTRICITY":0.00051595,"INCLINATION":54.9613,"RA_OF_ASC_NODE":223.1764,"ARG_OF_PERICENTER":266.9978,"MEAN_ANOMALY":92.9342,"EPHEMERIS_TYPE":0,"CLASSIFICATION_TYPE":"U","NORAD_CAT_ID":40889,"ELEMENT_SET_NO":999,"REV_AT_EPOCH":6608,"BSTAR":0,"MEAN_MOTION_DOT":-3.8e-7,"MEAN_MOTION_DDOT":0},{"OBJECT_NAME":"GSAT0206 (GALILEO 10)","OBJECT_ID":"2015-045B","EPOCH":"2026-04-25T15:57:09.169344","MEAN_MOTION":1.70473961,"ECCENTRICITY":0.00021884,"INCLINATION":54.9612,"RA_OF_ASC_NODE":223.054,"ARG_OF_PERICENTER":38.1287,"MEAN_ANOMALY":321.8788,"EPHEMERIS_TYPE":0,"CLASSIFICATION_TYPE":"U","NORAD_CAT_ID":40890,"ELEMENT_SET_NO":999,"REV_AT_EPOCH":6614,"BSTAR":0,"MEAN_MOTION_DOT":-3.8e-7,"MEAN_MOTION_DDOT":0},{"OBJECT_NAME":"GSAT0209 (GALILEO 12)","OBJECT_ID":"2015-079A","EPOCH":"2026-04-25T05:54:23.550624","MEAN_MOTION":1.70474059,"ECCENTRICITY":0.00056798,"INCLINATION":55.7962,"RA_OF_ASC_NODE":102.7123,"ARG_OF_PERICENTER":329.0159,"MEAN_ANOMALY":30.9454,"EPHEMERIS_TYPE":0,"CLASSIFICATION_TYPE":"U","NORAD_CAT_ID":41174,"ELEMENT_SET_NO":999,"REV_AT_EPOCH":6387,"BSTAR":0,"MEAN_MOTION_DOT":4.6e-7,"MEAN_MOTION_DDOT":0},{"OBJECT_NAME":"GSAT0208 (GALILEO 11)","OBJECT_ID":"2015-079B","EPOCH":"2026-04-26T01:16:15.463200","MEAN_MOTION":1.70473954,"ECCENTRICITY":0.00050504,"INCLINATION":55.7944,"RA_OF_ASC_NODE":102.6873,"ARG_OF_PERICENTER":330.1145,"MEAN_ANOMALY":29.8515,"EPHEMERIS_TYPE":0,"CLASSIFICATION_TYPE":"U","NORAD_CAT_ID":41175,"ELEMENT_SET_NO":999,"REV_AT_EPOCH":6430,"BSTAR":0,"MEAN_MOTION_DOT":4.6e-7,"MEAN_MOTION_DDOT":0},{"OBJECT_NAME":"GSAT0211 (GALILEO 14)","OBJECT_ID":"2016-030A","EPOCH":"2026-04-24T10:00:52.436448","MEAN_MOTION":1.70474087,"ECCENTRICITY":0.00025245,"INCLINATION":55.1119,"RA_OF_ASC_NODE":223.1731,"ARG_OF_PERICENTER":359.1559,"MEAN_ANOMALY":0.8397,"EPHEMERIS_TYPE":0,"CLASSIFICATION_TYPE":"U","NORAD_CAT_ID":41549,"ELEMENT_SET_NO":999,"REV_AT_EPOCH":6175,"BSTAR":0,"MEAN_MOTION_DOT":-3.0e-7,"MEAN_MOTION_DDOT":0},{"OBJECT_NAME":"GSAT0210 (GALILEO 13)","OBJECT_ID":"2016-030B","EPOCH":"2026-04-25T06:16:01.107552","MEAN_MOTION":1.70474037,"ECCENTRICITY":0.00028107,"INCLINATION":55.1104,"RA_OF_ASC_NODE":223.148,"ARG_OF_PERICENTER":225.6811,"MEAN_ANOMALY":134.2889,"EPHEMERIS_TYPE":0,"CLASSIFICATION_TYPE":"U","NORAD_CAT_ID":41550,"ELEMENT_SET_NO":999,"REV_AT_EPOCH":6176,"BSTAR":0,"MEAN_MOTION_DOT":-3.6e-7,"MEAN_MOTION_DDOT":0},{"OBJECT_NAME":"GSAT0207 (GALILEO 15)","OBJECT_ID":"2016-069A","EPOCH":"2026-04-26T17:06:01.945728","MEAN_MOTION":1.70473995,"ECCENTRICITY":0.0005912,"INCLINATION":55.4671,"RA_OF_ASC_NODE":102.5088,"ARG_OF_PERICENTER":317.1917,"MEAN_ANOMALY":42.7559,"EPHEMERIS_TYPE":0,"CLASSIFICATION_TYPE":"U","NORAD_CAT_ID":41859,"ELEMENT_SET_NO":999,"REV_AT_EPOCH":5852,"BSTAR":0,"MEAN_MOTION_DOT":4.3e-7,"MEAN_MOTION_DDOT":0},{"OBJECT_NAME":"GSAT0212 (GALILEO 16)","OBJECT_ID":"2016-069B","EPOCH":"2026-04-25T23:30:22.568832","MEAN_MOTION":1.70474171,"ECCENTRICITY":0.00046568,"INCLINATION":55.4638,"RA_OF_ASC_NODE":102.5243,"ARG_OF_PERICENTER":340.7517,"MEAN_ANOMALY":19.2254,"EPHEMERIS_TYPE":0,"CLASSIFICATION_TYPE":"U","NORAD_CAT_ID":41860,"ELEMENT_SET_NO":999,"REV_AT_EPOCH":5876,"BSTAR":0,"MEAN_MOTION_DOT":4.5e-7,"MEAN_MOTION_DDOT":0},{"OBJECT_NAME":"GSAT0213 (GALILEO 17)","OBJECT_ID":"2016-069C","EPOCH":"2026-04-26T22:24:01.740672","MEAN_MOTION":1.70474535,"ECCENTRICITY":0.00058481,"INCLINATION":55.4672,"RA_OF_ASC_NODE":102.5058,"ARG_OF_PERICENTER":302.693,"MEAN_ANOMALY":57.2437,"EPHEMERIS_TYPE":0,"CLASSIFICATION_TYPE":"U","NORAD_CAT_ID":41861,"ELEMENT_SET_NO":999,"REV_AT_EPOCH":5864,"BSTAR":0,"MEAN_MOTION_DOT":4.2e-7,"MEAN_MOTION_DDOT":0},{"OBJECT_NAME":"GSAT0214 (GALILEO 18)","OBJECT_ID":"2016-069D","EPOCH":"2026-04-27T01:54:26.405856","MEAN_MOTION":1.70474264,"ECCENTRICITY":0.0004907,"INCLINATION":55.4657,"RA_OF_ASC_NODE":102.4944,"ARG_OF_PERICENTER":307.7513,"MEAN_ANOMALY":52.1969,"EPHEMERIS_TYPE":0,"CLASSIFICATION_TYPE":"U","NORAD_CAT_ID":41862,"ELEMENT_SET_NO":999,"REV_AT_EPOCH":5877,"BSTAR":0,"MEAN_MOTION_DOT":4.2e-7,"MEAN_MOTION_DDOT":0}]
